{"type": "FeatureCollection", "features": [{"type": "Feature", "properties": {"norad_id": 2807, "name": "OPS 7218 (TRANSIT 16)", "group": "nnss", "lat": 57.04910262342479, "lon": 173.04938045128432, "alt_km": 1052.7336778559302, "timestamp": "2025-12-26T16:33:55.840769+00:00", "meta": {"OBJECT_NAME": "OPS 7218 (TRANSIT 16)", "OBJECT_ID": "1967-048A", "EPOCH": "2025-12-26T00:13:29.128224", "MEAN_MOTION": 13.50724931, "ECCENTRICITY": 0.00221376, "INCLINATION": 89.6734, "RA_OF_ASC_NODE": 353.576, "ARG_OF_PERICENTER": 78.7775, "MEAN_ANOMALY": 335.1226, "EPHEMERIS_TYPE": 0, "CLASSIFICATION_TYPE": "U", "NORAD_CAT_ID": 2807, "ELEMENT_SET_NO": 999, "REV_AT_EPOCH": 88455, "BSTAR": 0.0001382356, "MEAN_MOTION_DOT": 9.9e-07, "MEAN_MOTION_DDOT": 0}, "tle": {"line1": "1 02807U 67048A   25360.00936491  .00000099  00000+0  13824-3 0  9998", "line2": "2 02807  89.6734 353.5760 0022137  78.7775 335.1226 13.50724931884558"}}, "geometry": {"type": "Point", "coordinates": [173.04938045128432, 57.04910262342479]}}, {"type": "Feature", "properties": {"norad_id": 2965, "name": "OPS 4947 (TRANSIT 17)", "group": "nnss", "lat": -35.46625859731507, "lon": 22.835208204087824, "alt_km": 1089.0045749160636, "timestamp": "2025-12-26T16:33:55.840790+00:00", "meta": {"OBJECT_NAME": "OPS 4947 (TRANSIT 17)", "OBJECT_ID": "1967-092A", "EPOCH": "2025-12-26T00:51:43.162272", "MEAN_MOTION": 13.53457055, "ECCENTRICITY": 0.00472033, "INCLINATION": 89.2485, "RA_OF_ASC_NODE": 23.4208, "ARG_OF_PERICENTER": 195.1171, "MEAN_ANOMALY": 182.9002, "EPHEMERIS_TYPE": 0, "CLASSIFICATION_TYPE": "U", "NORAD_CAT_ID": 2965, "ELEMENT_SET_NO": 999, "REV_AT_EPOCH": 87277, "BSTAR": 0.00018182251, "MEAN_MOTION_DOT": 1.34e-06, "MEAN_MOTION_DDOT": 0}, "tle": {"line1": "1 02965U 67092A   25360.03591623  .00000134  00000+0  18182-3 0  9991", "line2": "2 02965  89.2485  23.4208 0047203 195.1171 182.9002 13.53457055872771"}}, "geometry": {"type": "Point", "coordinates": [22.835208204087824, -35.46625859731507]}}, {"type": "Feature", "properties": {"norad_id": 3133, "name": "OPS 7034 (TRANSIT 18)", "group": "nnss", "lat": 17.772821764384997, "lon": -86.33039138576328, "alt_km": 1086.7410454698902, "timestamp": "2025-12-26T16:33:55.840801+00:00", "meta": {"OBJECT_NAME": "OPS 7034 (TRANSIT 18)", "OBJECT_ID": "1968-012A", "EPOCH": "2025-12-26T06:23:15.175968", "MEAN_MOTION": 13.51568909, "ECCENTRICITY": 0.00750632, "INCLINATION": 90.0284, "RA_OF_ASC_NODE": 273.6775, "ARG_OF_PERICENTER": 130.3137, "MEAN_ANOMALY": 346.1654, "EPHEMERIS_TYPE": 0, "CLASSIFICATION_TYPE": "U", "NORAD_CAT_ID": 3133, "ELEMENT_SET_NO": 999, "REV_AT_EPOCH": 57101, "BSTAR": 0.00021195925, "MEAN_MOTION_DOT": 1.51e-06, "MEAN_MOTION_DDOT": 0}, "tle": {"line1": "1 03133U 68012A   25360.26614787  .00000151  00000+0  21196-3 0  9992", "line2": "2 03133  90.0284 273.6775 0075063 130.3137 346.1654 13.51568909571011"}}, "geometry": {"type": "Point", "coordinates": [-86.33039138576328, 17.772821764384997]}}, {"type": "Feature", "properties": {"norad_id": 4507, "name": "NNSS 19 (TRANSIT 19)", "group": "nnss", "lat": -20.613224913586798, "lon": -125.45508685853768, "alt_km": 1063.7282142989216, "timestamp": "2025-12-26T16:33:55.840812+00:00", "meta": {"OBJECT_NAME": "NNSS 19 (TRANSIT 19)", "OBJECT_ID": "1970-067A", "EPOCH": "2025-12-26T04:13:40.386432", "MEAN_MOTION": 13.51317842, "ECCENTRICITY": 0.01702188, "INCLINATION": 90.0047, "RA_OF_ASC_NODE": 234.5429, "ARG_OF_PERICENTER": 254.0449, "MEAN_ANOMALY": 104.1891, "EPHEMERIS_TYPE": 0, "CLASSIFICATION_TYPE": "U", "NORAD_CAT_ID": 4507, "ELEMENT_SET_NO": 999, "REV_AT_EPOCH": 72403, "BSTAR": 0.00012846967, "MEAN_MOTION_DOT": 9.9e-07, "MEAN_MOTION_DDOT": 0}, "tle": {"line1": "1 04507U 70067A   25360.17616188  .00000099  00000+0  12847-3 0  9992", "line2": "2 04507  90.0047 234.5429 0170218 254.0449 104.1891 13.51317842724039"}}, "geometry": {"type": "Point", "coordinates": [-125.45508685853768, -20.613224913586798]}}, {"type": "Feature", "properties": {"norad_id": 6909, "name": "NNSS 20 (TRANSIT 20)", "group": "nnss", "lat": -22.31178454822671, "lon": -105.21400309737679, "alt_km": 939.460798188934, "timestamp": "2025-12-26T16:33:55.840822+00:00", "meta": {"OBJECT_NAME": "NNSS 20 (TRANSIT 20)", "OBJECT_ID": "1973-081A", "EPOCH": "2025-12-26T04:24:52.750368", "MEAN_MOTION": 13.7144138, "ECCENTRICITY": 0.01560589, "INCLINATION": 89.8559, "RA_OF_ASC_NODE": 254.8528, "ARG_OF_PERICENTER": 38.4618, "MEAN_ANOMALY": 322.7546, "EPHEMERIS_TYPE": 0, "CLASSIFICATION_TYPE": "U", "NORAD_CAT_ID": 6909, "ELEMENT_SET_NO": 999, "REV_AT_EPOCH": 80545, "BSTAR": 0.0002770545, "MEAN_MOTION_DOT": 2.83e-06, "MEAN_MOTION_DDOT": 0}, "tle": {"line1": "1 06909U 73081A   25360.18394387  .00000283  00000+0  27705-3 0  9998", "line2": "2 06909  89.8559 254.8528 0156058  38.4618 322.7546 13.71441380805452"}}, "geometry": {"type": "Point", "coordinates": [-105.21400309737679, -22.31178454822671]}}, {"type": "Feature", "properties": {"norad_id": 10457, "name": "TRANSAT", "group": "nnss", "lat": -43.99460553394279, "lon": -101.55658374967187, "alt_km": 1077.3158610802375, "timestamp": "2025-12-26T16:33:55.840832+00:00", "meta": {"OBJECT_NAME": "TRANSAT", "OBJECT_ID": "1977-106A", "EPOCH": "2025-12-26T05:02:40.518816", "MEAN_MOTION": 13.48945696, "ECCENTRICITY": 0.00265932, "INCLINATION": 89.6474, "RA_OF_ASC_NODE": 78.1198, "ARG_OF_PERICENTER": 151.4033, "MEAN_ANOMALY": 262.4311, "EPHEMERIS_TYPE": 0, "CLASSIFICATION_TYPE": "U", "NORAD_CAT_ID": 10457, "ELEMENT_SET_NO": 999, "REV_AT_EPOCH": 36925, "BSTAR": 0.00012343794, "MEAN_MOTION_DOT": 8.8e-07, "MEAN_MOTION_DDOT": 0}, "tle": {"line1": "1 10457U 77106A   25360.21019119  .00000088  00000+0  12344-3 0  9990", "line2": "2 10457  89.6474  78.1198 0026593 151.4033 262.4311 13.48945696369252"}}, "geometry": {"type": "Point", "coordinates": [-101.55658374967187, -43.99460553394279]}}, {"type": "Feature", "properties": {"norad_id": 12458, "name": "NOVA 1", "group": "nnss", "lat": -82.16108700944282, "lon": 90.11591615735267, "alt_km": 1190.1147525031301, "timestamp": "2025-12-26T16:33:55.840843+00:00", "meta": {"OBJECT_NAME": "NOVA 1", "OBJECT_ID": "1981-044A", "EPOCH": "2025-12-26T06:21:41.464800", "MEAN_MOTION": 13.23279972, "ECCENTRICITY": 0.00156868, "INCLINATION": 89.8525, "RA_OF_ASC_NODE": 91.194, "ARG_OF_PERICENTER": 70.7289, "MEAN_ANOMALY": 342.9728, "EPHEMERIS_TYPE": 0, "CLASSIFICATION_TYPE": "U", "NORAD_CAT_ID": 12458, "ELEMENT_SET_NO": 999, "REV_AT_EPOCH": 15365, "BSTAR": 0.00011734721, "MEAN_MOTION_DOT": 5.9e-07, "MEAN_MOTION_DDOT": 0}, "tle": {"line1": "1 12458U 81044A   25360.26506325  .00000059  00000+0  11735-3 0  9995", "line2": "2 12458  89.8525  91.1940 0015686  70.7289 342.9728 13.23279972153652"}}, "geometry": {"type": "Point", "coordinates": [90.11591615735267, -82.16108700944282]}}, {"type": "Feature", "properties": {"norad_id": 15362, "name": "NOVA 3", "group": "nnss", "lat": 41.1797089272662, "lon": -99.19485101179762, "alt_km": 1189.8993392321418, "timestamp": "2025-12-26T16:33:55.840852+00:00", "meta": {"OBJECT_NAME": "NOVA 3", "OBJECT_ID": "1984-110A", "EPOCH": "2025-12-26T05:14:25.015776", "MEAN_MOTION": 13.2304636, "ECCENTRICITY": 0.00298457, "INCLINATION": 90.1217, "RA_OF_ASC_NODE": 80.6931, "ARG_OF_PERICENTER": 293.0213, "MEAN_ANOMALY": 119.6055, "EPHEMERIS_TYPE": 0, "CLASSIFICATION_TYPE": "U", "NORAD_CAT_ID": 15362, "ELEMENT_SET_NO": 999, "REV_AT_EPOCH": 98877, "BSTAR": 0.00015302465, "MEAN_MOTION_DOT": 7.3e-07, "MEAN_MOTION_DDOT": 0}, "tle": {"line1": "1 15362U 84110A   25360.21834509  .00000073  00000+0  15302-3 0  9992", "line2": "2 15362  90.1217  80.6931 0029845 293.0213 119.6055 13.23046360988778"}}, "geometry": {"type": "Point", "coordinates": [-99.19485101179762, 41.1797089272662]}}, {"type": "Feature", "properties": {"norad_id": 15935, "name": "OSCAR 30", "group": "nnss", "lat": 24.72865397927344, "lon": -79.84867050036964, "alt_km": 1165.205859208574, "timestamp": "2025-12-26T16:33:55.840862+00:00", "meta": {"OBJECT_NAME": "OSCAR 30", "OBJECT_ID": "1985-066A", "EPOCH": "2025-12-26T06:53:54.148128", "MEAN_MOTION": 13.36080592, "ECCENTRICITY": 0.01687792, "INCLINATION": 90.1653, "RA_OF_ASC_NODE": 100.0686, "ARG_OF_PERICENTER": 46.0311, "MEAN_ANOMALY": 331.0447, "EPHEMERIS_TYPE": 0, "CLASSIFICATION_TYPE": "U", "NORAD_CAT_ID": 15935, "ELEMENT_SET_NO": 999, "REV_AT_EPOCH": 96634, "BSTAR": 0.00016935585, "MEAN_MOTION_DOT": 1.04e-06, "MEAN_MOTION_DDOT": 0}, "tle": {"line1": "1 15935U 85066A   25360.28743227  .00000104  00000+0  16936-3 0  9991", "line2": "2 15935  90.1653 100.0686 0168779  46.0311 331.0447 13.36080592966340"}}, "geometry": {"type": "Point", "coordinates": [-79.84867050036964, 24.72865397927344]}}, {"type": "Feature", "properties": {"norad_id": 15936, "name": "OSCAR 24", "group": "nnss", "lat": -41.950441514870555, "lon": -87.60886342191475, "alt_km": 1256.813838034821, "timestamp": "2025-12-26T16:33:55.840872+00:00", "meta": {"OBJECT_NAME": "OSCAR 24", "OBJECT_ID": "1985-066B", "EPOCH": "2025-12-26T06:35:17.822976", "MEAN_MOTION": 13.3593777, "ECCENTRICITY": 0.01699616, "INCLINATION": 90.179, "RA_OF_ASC_NODE": 92.5448, "ARG_OF_PERICENTER": 52.5199, "MEAN_ANOMALY": 330.8458, "EPHEMERIS_TYPE": 0, "CLASSIFICATION_TYPE": "U", "NORAD_CAT_ID": 15936, "ELEMENT_SET_NO": 999, "REV_AT_EPOCH": 96824, "BSTAR": 0.00015135848, "MEAN_MOTION_DOT": 9.4e-07, "MEAN_MOTION_DDOT": 0}, "tle": {"line1": "1 15936U 85066B   25360.27451184  .00000094  00000+0  15136-3 0  9998", "line2": "2 15936  90.1790  92.5448 0169961  52.5199 330.8458 13.35937770968242"}}, "geometry": {"type": "Point", "coordinates": [-87.60886342191475, -41.950441514870555]}}]}